{"fetched_at":"2026-03-29T16:36:15Z","count":15609,"tles":[{"name":"STARLINK-31626","line1":"1 59392U 24062U   26087.50293887  .00002280  00000+0  89135-4 0  9998","line2":"2 59392  53.1607 168.1451 0001207  69.9664 290.1467 15.30182906112556","category":"Starlink"}]}